[{"OBJECT_NAME":"ONEWEB-0063","OBJECT_ID":"2020-020AA","EPOCH":"2026-03-09T21:52:54.225408","MEAN_MOTION":13.11415684,"ECCENTRICITY":0.00017785,"INCLINATION":87.8872,"RA_OF_ASC_NODE":40.7986,"ARG_OF_PERICENTER":74.677,"MEAN_ANOMALY":285.4554,"EPHEMERIS_TYPE":0,"CLASSIFICATION_TYPE":"U","NORAD_CAT_ID":45448,"ELEMENT_SET_NO":999,"REV_AT_EPOCH":28968,"BSTAR":0.0014122502,"MEAN_MOTION_DOT":5.13e-6,"MEAN_MOTION_DDOT":0},{"OBJECT_NAME":"COSMOS 2499 DEB","OBJECT_ID":"2014-028AR","EPOCH":"2026-03-08T16:30:44.028576","MEAN_MOTION":12.83466511,"ECCENTRICITY":0.02314502,"INCLINATION":82.4562,"RA_OF_ASC_NODE":320.1068,"ARG_OF_PERICENTER":234.9243,"MEAN_ANOMALY":122.9961,"EPHEMERIS_TYPE":0,"CLASSIFICATION_TYPE":"U","NORAD_CAT_ID":55729,"ELEMENT_SET_NO":999,"REV_AT_EPOCH":14716,"BSTAR":0.00025511886,"MEAN_MOTION_DOT":7.8e-7,"MEAN_MOTION_DDOT":0}]
